NOAA 21 (JPSS-2)        
1 54234U 22150A   25334.05608016  .00000114  00000+0  74685-4 0  9990
2 54234  98.7443 270.5237 0002608  61.7273 298.4166 14.19518523158293
METEOSAT-12 (MTG-I1)    
1 54743U 22170C   25334.07735269  .00000014  00000+0  00000+0 0  9994
2 54743   0.7122  29.4377 0001348 208.8315 218.4816  1.00273364 10986
TIANMU-1 03             
1 55973U 23039A   25334.22129593  .00018410  00000+0  45723-3 0  9993
2 55973  97.5108 136.5284 0004525  96.9473 263.2287 15.40376713150131
TIANMU-1 04             
1 55974U 23039B   25334.20343155  .00018515  00000+0  45484-3 0  9994
2 55974  97.5039 135.7063 0005269  93.6373 266.5476 15.40703029150130
TIANMU-1 05             
1 55975U 23039C   25334.19463321  .00018136  00000+0  45112-3 0  9998
2 55975  97.5085 136.1889 0004252 114.0286 246.1405 15.40334131150113
TIANMU-1 06             
1 55976U 23039D   25334.20603395  .00018609  00000+0  45640-3 0  9999
2 55976  97.5096 136.6556 0004644 109.8072 250.3675 15.40756539150130
FENGYUN 3G              
1 56232U 23055A   25334.17802678  .00037674  00000+0  60583-3 0  9990
2 56232  49.9944 292.2236 0009237  87.8201 272.3824 15.52532016149071
METEOR-M2 3             
1 57166U 23091A   25334.18463949  .00000000  00000+0  19060-4 0  9990
2 57166  98.6395  27.9422 0004553  42.0406 318.1122 14.24023624126191
