{
  "type": "FeatureCollection",
  "features": [
    {
      "type": "Feature",
      "properties": {
        "OBJECT_NAME": "NOAA 21 (JPSS-2)",
        "OBJECT_ID": "2022-150A",
        "EPOCH": "2025-11-30T01:20:45.325824",
        "MEAN_MOTION": 14.19518523,
        "ECCENTRICITY": 0.0002608,
        "INCLINATION": 98.7443,
        "RA_OF_ASC_NODE": 270.5237,
        "ARG_OF_PERICENTER": 61.7273,
        "MEAN_ANOMALY": 298.4166,
        "EPHEMERIS_TYPE": 0,
        "CLASSIFICATION_TYPE": "U",
        "NORAD_CAT_ID": 54234,
        "ELEMENT_SET_NO": 999,
        "REV_AT_EPOCH": 15829,
        "BSTAR": 7.4685e-05,
        "MEAN_MOTION_DOT": 1.14e-06,
        "MEAN_MOTION_DDOT": 0,
        "norad_id": 54234,
        "name": "NOAA 21 (JPSS-2)",
        "group": "weather",
        "longitude_deg": NaN,
        "latitude_deg": NaN,
        "alt_km": NaN,
        "orbit_class": "HEO",
        "timestamp": "2025-11-30T09:33:02.532141+00:00"
      },
      "geometry": {
        "type": "Point",
        "coordinates": [
          NaN,
          NaN
        ]
      }
    },
    {
      "type": "Feature",
      "properties": {
        "OBJECT_NAME": "METEOSAT-12 (MTG-I1)",
        "OBJECT_ID": "2022-170C",
        "EPOCH": "2025-11-30T01:51:23.272416",
        "MEAN_MOTION": 1.00273364,
        "ECCENTRICITY": 0.0001348,
        "INCLINATION": 0.7122,
        "RA_OF_ASC_NODE": 29.4377,
        "ARG_OF_PERICENTER": 208.8315,
        "MEAN_ANOMALY": 218.4816,
        "EPHEMERIS_TYPE": 0,
        "CLASSIFICATION_TYPE": "U",
        "NORAD_CAT_ID": 54743,
        "ELEMENT_SET_NO": 999,
        "REV_AT_EPOCH": 1098,
        "BSTAR": 0,
        "MEAN_MOTION_DOT": 1.4e-07,
        "MEAN_MOTION_DDOT": 0,
        "norad_id": 54743,
        "name": "METEOSAT-12 (MTG-I1)",
        "group": "weather",
        "longitude_deg": NaN,
        "latitude_deg": NaN,
        "alt_km": NaN,
        "orbit_class": "HEO",
        "timestamp": "2025-11-30T09:33:02.532643+00:00"
      },
      "geometry": {
        "type": "Point",
        "coordinates": [
          NaN,
          NaN
        ]
      }
    },
    {
      "type": "Feature",
      "properties": {
        "OBJECT_NAME": "TIANMU-1 03",
        "OBJECT_ID": "2023-039A",
        "EPOCH": "2025-11-30T05:18:39.968352",
        "MEAN_MOTION": 15.40376713,
        "ECCENTRICITY": 0.0004525,
        "INCLINATION": 97.5108,
        "RA_OF_ASC_NODE": 136.5284,
        "ARG_OF_PERICENTER": 96.9473,
        "MEAN_ANOMALY": 263.2287,
        "EPHEMERIS_TYPE": 0,
        "CLASSIFICATION_TYPE": "U",
        "NORAD_CAT_ID": 55973,
        "ELEMENT_SET_NO": 999,
        "REV_AT_EPOCH": 15013,
        "BSTAR": 0.00045723,
        "MEAN_MOTION_DOT": 0.0001841,
        "MEAN_MOTION_DDOT": 0,
        "norad_id": 55973,
        "name": "TIANMU-1 03",
        "group": "weather",
        "longitude_deg": NaN,
        "latitude_deg": NaN,
        "alt_km": NaN,
        "orbit_class": "HEO",
        "timestamp": "2025-11-30T09:33:02.536810+00:00"
      },
      "geometry": {
        "type": "Point",
        "coordinates": [
          NaN,
          NaN
        ]
      }
    },
    {
      "type": "Feature",
      "properties": {
        "OBJECT_NAME": "TIANMU-1 04",
        "OBJECT_ID": "2023-039B",
        "EPOCH": "2025-11-30T04:52:56.485920",
        "MEAN_MOTION": 15.40703029,
        "ECCENTRICITY": 0.0005269,
        "INCLINATION": 97.5039,
        "RA_OF_ASC_NODE": 135.7063,
        "ARG_OF_PERICENTER": 93.6373,
        "MEAN_ANOMALY": 266.5476,
        "EPHEMERIS_TYPE": 0,
        "CLASSIFICATION_TYPE": "U",
        "NORAD_CAT_ID": 55974,
        "ELEMENT_SET_NO": 999,
        "REV_AT_EPOCH": 15013,
        "BSTAR": 0.00045484,
        "MEAN_MOTION_DOT": 0.00018515,
        "MEAN_MOTION_DDOT": 0,
        "norad_id": 55974,
        "name": "TIANMU-1 04",
        "group": "weather",
        "longitude_deg": NaN,
        "latitude_deg": NaN,
        "alt_km": NaN,
        "orbit_class": "HEO",
        "timestamp": "2025-11-30T09:33:02.536817+00:00"
      },
      "geometry": {
        "type": "Point",
        "coordinates": [
          NaN,
          NaN
        ]
      }
    },
    {
      "type": "Feature",
      "properties": {
        "OBJECT_NAME": "TIANMU-1 05",
        "OBJECT_ID": "2023-039C",
        "EPOCH": "2025-11-30T04:40:16.309344",
        "MEAN_MOTION": 15.40334131,
        "ECCENTRICITY": 0.0004252,
        "INCLINATION": 97.5085,
        "RA_OF_ASC_NODE": 136.1889,
        "ARG_OF_PERICENTER": 114.0286,
        "MEAN_ANOMALY": 246.1405,
        "EPHEMERIS_TYPE": 0,
        "CLASSIFICATION_TYPE": "U",
        "NORAD_CAT_ID": 55975,
        "ELEMENT_SET_NO": 999,
        "REV_AT_EPOCH": 15011,
        "BSTAR": 0.00045112,
        "MEAN_MOTION_DOT": 0.00018136,
        "MEAN_MOTION_DDOT": 0,
        "norad_id": 55975,
        "name": "TIANMU-1 05",
        "group": "weather",
        "longitude_deg": NaN,
        "latitude_deg": NaN,
        "alt_km": NaN,
        "orbit_class": "HEO",
        "timestamp": "2025-11-30T09:33:02.536823+00:00"
      },
      "geometry": {
        "type": "Point",
        "coordinates": [
          NaN,
          NaN
        ]
      }
    },
    {
      "type": "Feature",
      "properties": {
        "OBJECT_NAME": "TIANMU-1 06",
        "OBJECT_ID": "2023-039D",
        "EPOCH": "2025-11-30T04:56:41.333280",
        "MEAN_MOTION": 15.40756539,
        "ECCENTRICITY": 0.0004644,
        "INCLINATION": 97.5096,
        "RA_OF_ASC_NODE": 136.6556,
        "ARG_OF_PERICENTER": 109.8072,
        "MEAN_ANOMALY": 250.3675,
        "EPHEMERIS_TYPE": 0,
        "CLASSIFICATION_TYPE": "U",
        "NORAD_CAT_ID": 55976,
        "ELEMENT_SET_NO": 999,
        "REV_AT_EPOCH": 15013,
        "BSTAR": 0.0004564,
        "MEAN_MOTION_DOT": 0.00018609,
        "MEAN_MOTION_DDOT": 0,
        "norad_id": 55976,
        "name": "TIANMU-1 06",
        "group": "weather",
        "longitude_deg": NaN,
        "latitude_deg": NaN,
        "alt_km": NaN,
        "orbit_class": "HEO",
        "timestamp": "2025-11-30T09:33:02.536829+00:00"
      },
      "geometry": {
        "type": "Point",
        "coordinates": [
          NaN,
          NaN
        ]
      }
    },
    {
      "type": "Feature",
      "properties": {
        "OBJECT_NAME": "FENGYUN 3G",
        "OBJECT_ID": "2023-055A",
        "EPOCH": "2025-11-30T04:16:21.513792",
        "MEAN_MOTION": 15.52532016,
        "ECCENTRICITY": 0.0009237,
        "INCLINATION": 49.9944,
        "RA_OF_ASC_NODE": 292.2236,
        "ARG_OF_PERICENTER": 87.8201,
        "MEAN_ANOMALY": 272.3824,
        "EPHEMERIS_TYPE": 0,
        "CLASSIFICATION_TYPE": "U",
        "NORAD_CAT_ID": 56232,
        "ELEMENT_SET_NO": 999,
        "REV_AT_EPOCH": 14907,
        "BSTAR": 0.00060583,
        "MEAN_MOTION_DOT": 0.00037674,
        "MEAN_MOTION_DDOT": 0,
        "norad_id": 56232,
        "name": "FENGYUN 3G",
        "group": "weather",
        "longitude_deg": NaN,
        "latitude_deg": NaN,
        "alt_km": NaN,
        "orbit_class": "HEO",
        "timestamp": "2025-11-30T09:33:02.537977+00:00"
      },
      "geometry": {
        "type": "Point",
        "coordinates": [
          NaN,
          NaN
        ]
      }
    },
    {
      "type": "Feature",
      "properties": {
        "OBJECT_NAME": "METEOR-M2 3",
        "OBJECT_ID": "2023-091A",
        "EPOCH": "2025-11-30T04:25:52.851936",
        "MEAN_MOTION": 14.24023624,
        "ECCENTRICITY": 0.0004553,
        "INCLINATION": 98.6395,
        "RA_OF_ASC_NODE": 27.9422,
        "ARG_OF_PERICENTER": 42.0406,
        "MEAN_ANOMALY": 318.1122,
        "EPHEMERIS_TYPE": 0,
        "CLASSIFICATION_TYPE": "U",
        "NORAD_CAT_ID": 57166,
        "ELEMENT_SET_NO": 999,
        "REV_AT_EPOCH": 12619,
        "BSTAR": 1.906e-05,
        "MEAN_MOTION_DOT": 0,
        "MEAN_MOTION_DDOT": 0,
        "norad_id": 57166,
        "name": "METEOR-M2 3",
        "group": "weather",
        "longitude_deg": NaN,
        "latitude_deg": NaN,
        "alt_km": NaN,
        "orbit_class": "HEO",
        "timestamp": "2025-11-30T09:33:02.541884+00:00"
      },
      "geometry": {
        "type": "Point",
        "coordinates": [
          NaN,
          NaN
        ]
      }
    }
  ]
}